[
  {
    "COMMENT": "GENERATED VIA SPACETRACK.ORG API",
    "ORIGINATOR": "18 SPCS",
    "NORAD_CAT_ID": "54754",
    "OBJECT_NAME": "SWOT",
    "OBJECT_TYPE": "PAYLOAD",
    "CLASSIFICATION_TYPE": "U",
    "INTLDES": "22173A",
    "EPOCH": "2023-06-24 01:54:26",
    "EPOCH_MICROSECONDS": "592480",
    "MEAN_MOTION": "14.09851389",
    "ECCENTRICITY": "0.0000679",
    "INCLINATION": "77.61",
    "RA_OF_ASC_NODE": "65.8904",
    "ARG_OF_PERICENTER": "177.9777",
    "MEAN_ANOMALY": "182.1382",
    "EPHEMERIS_TYPE": "0",
    "ELEMENT_SET_NO": "999",
    "REV_AT_EPOCH": "2671",
    "BSTAR": "0.000152",
    "MEAN_MOTION_DOT": "0.00000265",
    "MEAN_MOTION_DDOT": "0",
    "FILE": "3941366",
    "TLE_LINE0": "0 SWOT",
    "TLE_LINE1": "1 54754U 22173A   23175.07947445  .00000265  00000-0  15200-3 0  9992",
    "TLE_LINE2": "2 54754  77.6100  65.8904 0000679 177.9777 182.1382 14.09851389 26716",
    "OBJECT_ID": "2022-173A",
    "OBJECT_NUMBER": "54754",
    "SEMIMAJOR_AXIS": "7238.017",
    "PERIOD": "102.138",
    "APOGEE": "860.374",
    "PERIGEE": "859.391",
    "DECAYED": "0"
  },
  {
    "COMMENT": "GENERATED VIA SPACETRACK.ORG API",
    "ORIGINATOR": "18 SPCS",
    "NORAD_CAT_ID": "54754",
    "OBJECT_NAME": "SWOT",
    "OBJECT_TYPE": "PAYLOAD",
    "CLASSIFICATION_TYPE": "U",
    "INTLDES": "22173A",
    "EPOCH": "2023-06-25 03:27:15",
    "EPOCH_MICROSECONDS": "803424",
    "MEAN_MOTION": "14.09851959",
    "ECCENTRICITY": "0.0000668",
    "INCLINATION": "77.61",
    "RA_OF_ASC_NODE": "64.4301",
    "ARG_OF_PERICENTER": "176.9297",
    "MEAN_ANOMALY": "183.1864",
    "EPHEMERIS_TYPE": "0",
    "ELEMENT_SET_NO": "999",
    "REV_AT_EPOCH": "2686",
    "BSTAR": "0.0001452",
    "MEAN_MOTION_DOT": "0.00000253",
    "MEAN_MOTION_DDOT": "0",
    "FILE": "3942230",
    "TLE_LINE0": "0 SWOT",
    "TLE_LINE1": "1 54754U 22173A   23176.14393291  .00000253  00000-0  14520-3 0  9996",
    "TLE_LINE2": "2 54754  77.6100  64.4301 0000668 176.9297 183.1864 14.09851959 26861",
    "OBJECT_ID": "2022-173A",
    "OBJECT_NUMBER": "54754",
    "SEMIMAJOR_AXIS": "7238.015",
    "PERIOD": "102.138",
    "APOGEE": "860.364",
    "PERIGEE": "859.397",
    "DECAYED": "0"
  },
  {
    "COMMENT": "GENERATED VIA SPACETRACK.ORG API",
    "ORIGINATOR": "18 SPCS",
    "NORAD_CAT_ID": "54754",
    "OBJECT_NAME": "SWOT",
    "OBJECT_TYPE": "PAYLOAD",
    "CLASSIFICATION_TYPE": "U",
    "INTLDES": "22173A",
    "EPOCH": "2023-06-26 08:24:27",
    "EPOCH_MICROSECONDS": "529632",
    "MEAN_MOTION": "14.09852576",
    "ECCENTRICITY": "0.0000644",
    "INCLINATION": "77.61",
    "RA_OF_ASC_NODE": "62.7751",
    "ARG_OF_PERICENTER": "176.9256",
    "MEAN_ANOMALY": "183.1905",
    "EPHEMERIS_TYPE": "0",
    "ELEMENT_SET_NO": "999",
    "REV_AT_EPOCH": "2703",
    "BSTAR": "0.00014328",
    "MEAN_MOTION_DOT": "0.00000249",
    "MEAN_MOTION_DDOT": "0",
    "FILE": "3943378",
    "TLE_LINE0": "0 SWOT",
    "TLE_LINE1": "1 54754U 22173A   23177.35031863  .00000249  00000-0  14328-3 0  9995",
    "TLE_LINE2": "2 54754  77.6100  62.7751 0000644 176.9256 183.1905 14.09852576 27032",
    "OBJECT_ID": "2022-173A",
    "OBJECT_NUMBER": "54754",
    "SEMIMAJOR_AXIS": "7238.013",
    "PERIOD": "102.138",
    "APOGEE": "860.344",
    "PERIGEE": "859.412",
    "DECAYED": "0"
  },
  {
    "COMMENT": "GENERATED VIA SPACETRACK.ORG API",
    "ORIGINATOR": "18 SPCS",
    "NORAD_CAT_ID": "54754",
    "OBJECT_NAME": "SWOT",
    "OBJECT_TYPE": "PAYLOAD",
    "CLASSIFICATION_TYPE": "U",
    "INTLDES": "22173A",
    "EPOCH": "2023-06-27 09:57:16",
    "EPOCH_MICROSECONDS": "665408",
    "MEAN_MOTION": "14.09853067",
    "ECCENTRICITY": "0.0000627",
    "INCLINATION": "77.61",
    "RA_OF_ASC_NODE": "61.3149",
    "ARG_OF_PERICENTER": "176.8931",
    "MEAN_ANOMALY": "183.223",
    "EPHEMERIS_TYPE": "0",
    "ELEMENT_SET_NO": "999",
    "REV_AT_EPOCH": "2718",
    "BSTAR": "0.0001411",
    "MEAN_MOTION_DOT": "0.00000245",
    "MEAN_MOTION_DDOT": "0",
    "FILE": "3944210",
    "TLE_LINE0": "0 SWOT",
    "TLE_LINE1": "1 54754U 22173A   23178.41477622  .00000245  00000-0  14110-3 0  9995",
    "TLE_LINE2": "2 54754  77.6100  61.3149 0000627 176.8931 183.2230 14.09853067 27182",
    "OBJECT_ID": "2022-173A",
    "OBJECT_NUMBER": "54754",
    "SEMIMAJOR_AXIS": "7238.012",
    "PERIOD": "102.138",
    "APOGEE": "860.330",
    "PERIGEE": "859.423",
    "DECAYED": "0"
  },
  {
    "COMMENT": "GENERATED VIA SPACETRACK.ORG API",
    "ORIGINATOR": "18 SPCS",
    "NORAD_CAT_ID": "54754",
    "OBJECT_NAME": "SWOT",
    "OBJECT_TYPE": "PAYLOAD",
    "CLASSIFICATION_TYPE": "U",
    "INTLDES": "22173A",
    "EPOCH": "2023-06-28 16:36:39",
    "EPOCH_MICROSECONDS": "584448",
    "MEAN_MOTION": "14.09853647",
    "ECCENTRICITY": "0.0000623",
    "INCLINATION": "77.61",
    "RA_OF_ASC_NODE": "59.5625",
    "ARG_OF_PERICENTER": "176.4763",
    "MEAN_ANOMALY": "183.6398",
    "EPHEMERIS_TYPE": "0",
    "ELEMENT_SET_NO": "999",
    "REV_AT_EPOCH": "2736",
    "BSTAR": "0.00013022",
    "MEAN_MOTION_DOT": "0.00000226",
    "MEAN_MOTION_DDOT": "0",
    "FILE": "3945237",
    "TLE_LINE0": "0 SWOT",
    "TLE_LINE1": "1 54754U 22173A   23179.69212482  .00000226  00000-0  13022-3 0  9997",
    "TLE_LINE2": "2 54754  77.6100  59.5625 0000623 176.4763 183.6398 14.09853647 27368",
    "OBJECT_ID": "2022-173A",
    "OBJECT_NUMBER": "54754",
    "SEMIMAJOR_AXIS": "7238.010",
    "PERIOD": "102.138",
    "APOGEE": "860.326",
    "PERIGEE": "859.424",
    "DECAYED": "0"
  },
  {
    "COMMENT": "GENERATED VIA SPACETRACK.ORG API",
    "ORIGINATOR": "18 SPCS",
    "NORAD_CAT_ID": "54754",
    "OBJECT_NAME": "SWOT",
    "OBJECT_TYPE": "PAYLOAD",
    "CLASSIFICATION_TYPE": "U",
    "INTLDES": "22173A",
    "EPOCH": "2023-06-29 18:09:28",
    "EPOCH_MICROSECONDS": "648512",
    "MEAN_MOTION": "14.09854166",
    "ECCENTRICITY": "0.0000614",
    "INCLINATION": "77.6099",
    "RA_OF_ASC_NODE": "58.1022",
    "ARG_OF_PERICENTER": "176.2479",
    "MEAN_ANOMALY": "183.8683",
    "EPHEMERIS_TYPE": "0",
    "ELEMENT_SET_NO": "999",
    "REV_AT_EPOCH": "2751",
    "BSTAR": "0.00013303",
    "MEAN_MOTION_DOT": "0.00000231",
    "MEAN_MOTION_DDOT": "0",
    "FILE": "3946005",
    "TLE_LINE0": "0 SWOT",
    "TLE_LINE1": "1 54754U 22173A   23180.75658158  .00000231  00000-0  13303-3 0  9998",
    "TLE_LINE2": "2 54754  77.6099  58.1022 0000614 176.2479 183.8683 14.09854166 27516",
    "OBJECT_ID": "2022-173A",
    "OBJECT_NUMBER": "54754",
    "SEMIMAJOR_AXIS": "7238.008",
    "PERIOD": "102.138",
    "APOGEE": "860.317",
    "PERIGEE": "859.428",
    "DECAYED": "0"
  },
  {
    "COMMENT": "GENERATED VIA SPACETRACK.ORG API",
    "ORIGINATOR": "18 SPCS",
    "NORAD_CAT_ID": "54754",
    "OBJECT_NAME": "SWOT",
    "OBJECT_TYPE": "PAYLOAD",
    "CLASSIFICATION_TYPE": "U",
    "INTLDES": "22173A",
    "EPOCH": "2023-07-01 04:13:14",
    "EPOCH_MICROSECONDS": "150208",
    "MEAN_MOTION": "14.09849325",
    "ECCENTRICITY": "0.0000612",
    "INCLINATION": "77.6099",
    "RA_OF_ASC_NODE": "56.1551",
    "ARG_OF_PERICENTER": "177.1341",
    "MEAN_ANOMALY": "182.9819",
    "EPHEMERIS_TYPE": "0",
    "ELEMENT_SET_NO": "999",
    "REV_AT_EPOCH": "2771",
    "BSTAR": "0.0001257",
    "MEAN_MOTION_DOT": "0.00000218",
    "MEAN_MOTION_DDOT": "0",
    "FILE": "3946612",
    "TLE_LINE0": "0 SWOT",
    "TLE_LINE1": "1 54754U 22173A   23182.17585822  .00000218  00000-0  12570-3 0  9993",
    "TLE_LINE2": "2 54754  77.6099  56.1551 0000612 177.1341 182.9819 14.09849325 27711",
    "OBJECT_ID": "2022-173A",
    "OBJECT_NUMBER": "54754",
    "SEMIMAJOR_AXIS": "7238.024",
    "PERIOD": "102.139",
    "APOGEE": "860.332",
    "PERIGEE": "859.446",
    "DECAYED": "0"
  },
  {
    "COMMENT": "GENERATED VIA SPACETRACK.ORG API",
    "ORIGINATOR": "18 SPCS",
    "NORAD_CAT_ID": "54754",
    "OBJECT_NAME": "SWOT",
    "OBJECT_TYPE": "PAYLOAD",
    "CLASSIFICATION_TYPE": "U",
    "INTLDES": "22173A",
    "EPOCH": "2023-07-02 09:10:26",
    "EPOCH_MICROSECONDS": "80320",
    "MEAN_MOTION": "14.09849772",
    "ECCENTRICITY": "0.000059",
    "INCLINATION": "77.6099",
    "RA_OF_ASC_NODE": "54.5001",
    "ARG_OF_PERICENTER": "177.2172",
    "MEAN_ANOMALY": "182.8988",
    "EPHEMERIS_TYPE": "0",
    "ELEMENT_SET_NO": "999",
    "REV_AT_EPOCH": "2788",
    "BSTAR": "0.00010364",
    "MEAN_MOTION_DOT": "0.0000018",
    "MEAN_MOTION_DDOT": "0",
    "FILE": "3947723",
    "TLE_LINE0": "0 SWOT",
    "TLE_LINE1": "1 54754U 22173A   23183.38224630  .00000180  00000-0  10364-3 0  9991",
    "TLE_LINE2": "2 54754  77.6099  54.5001 0000590 177.2172 182.8988 14.09849772 27881",
    "OBJECT_ID": "2022-173A",
    "OBJECT_NUMBER": "54754",
    "SEMIMAJOR_AXIS": "7238.023",
    "PERIOD": "102.139",
    "APOGEE": "860.315",
    "PERIGEE": "859.461",
    "DECAYED": "0"
  },
  {
    "COMMENT": "GENERATED VIA SPACETRACK.ORG API",
    "ORIGINATOR": "18 SPCS",
    "NORAD_CAT_ID": "54754",
    "OBJECT_NAME": "SWOT",
    "OBJECT_TYPE": "PAYLOAD",
    "CLASSIFICATION_TYPE": "U",
    "INTLDES": "22173A",
    "EPOCH": "2023-07-03 10:43:15",
    "EPOCH_MICROSECONDS": "394080",
    "MEAN_MOTION": "14.0985029",
    "ECCENTRICITY": "0.0000577",
    "INCLINATION": "77.6099",
    "RA_OF_ASC_NODE": "53.0398",
    "ARG_OF_PERICENTER": "177.5058",
    "MEAN_ANOMALY": "182.6102",
    "EPHEMERIS_TYPE": "0",
    "ELEMENT_SET_NO": "999",
    "REV_AT_EPOCH": "2803",
    "BSTAR": "0.00012431",
    "MEAN_MOTION_DOT": "0.00000216",
    "MEAN_MOTION_DDOT": "0",
    "FILE": "3948503",
    "TLE_LINE0": "0 SWOT",
    "TLE_LINE1": "1 54754U 22173A   23184.44670595  .00000216  00000-0  12431-3 0  9991",
    "TLE_LINE2": "2 54754  77.6099  53.0398 0000577 177.5058 182.6102 14.09850290 28036",
    "OBJECT_ID": "2022-173A",
    "OBJECT_NUMBER": "54754",
    "SEMIMAJOR_AXIS": "7238.021",
    "PERIOD": "102.139",
    "APOGEE": "860.304",
    "PERIGEE": "859.468",
    "DECAYED": "0"
  }
]